UNKNOWN                 
1 81845U          25291.47833743  .00005126  00000+0  57039-3 0  9994
2 81845  97.6780 120.5009 0089707 126.3169 265.3375 14.84617991641328
UNKNOWN                 
1 81864U          25292.37209743  .00005224  00000+0  20612-2 0  9997
2 81864  65.6738 193.8943 0759942  36.7598 328.3154 13.32177422543599
UNKNOWN                 
1 81865U          25293.35062867  .00003200  00000+0  26426-2 0  9992
2 81865  82.8036  69.8929 0063935 156.7299 234.7016 13.87769718601147
UNKNOWN                 
1 81893U          25292.13817863  .00001534  00000+0  16137-2 0  9998
2 81893 100.0415 272.4668 0021620  48.8192 311.4817 13.76514148596566
UNKNOWN                 
1 81899U          25292.00530720  .00001733  00000+0  41187-2 0  9998
2 81899 102.4167  23.9637 0173834 328.2970  30.7762 13.19957902571762
UNKNOWN                 
1 81921U          25266.63042182  .00000442  00000+0  20773-3 0  9999
2 81921  65.7056 234.9310 0851851 149.0638 216.3584 13.14768429 15250
UNKNOWN                 
1 81946U          25292.89793422  .00000227  00000+0  92221-3 0  9991
2 81946  66.4188 256.1975 0668496  17.2798  10.5082 12.42553253541199
UNKNOWN                 
1 81947U          25292.44338888  .00010690  00000+0  99817-3 0  9997
2 81947  66.0758 319.5755 0384348 176.4800 183.9160 14.51941706623135
UNKNOWN                 
1 81964U          25293.29115393  .00000446  00000+0  38309-3 0  9991
2 81964  66.5865  31.5132 0030687 130.7060 229.6693 13.95746727606585
UNKNOWN                 
1 81969U          25292.14989598  .00021930  00000+0  13656-2 0  9993
2 81969  86.6934 177.0776 0006556  45.3642 314.8129 15.09461144431935
UNKNOWN                 
1 81995U          25293.19434471  .00019434  00000+0  36838-2 0  9996
2 81995  65.7454 263.9891 0521592 323.3549  33.2877 14.02725696596716
UNKNOWN                 
1 82043U          25291.87893169  .00006222  00000+0  17342-2 0  9997
2 82043  97.9250  85.2016 0232475 248.3339 109.2946 14.31935069565994
UNKNOWN                 
1 82051U          25291.97721084  .00009920  00000+0  33227-2 0  9991
2 82051  98.7504  16.7002 0093267  62.6446 298.4194 14.35058937564559
UNKNOWN                 
1 82073U          25293.19860130  .00005621  00000+0  14345-2 0  9991
2 82073  97.7575  14.4142 0209731  91.2192 271.3033 14.38464621567426
UNKNOWN                 
1 82139U          25292.13314304  .00004826  00000+0  24291-2 0  9991
2 82139  99.0301 359.3661 0084373 196.5398 163.3019 14.15027506472395
UNKNOWN                 
1 82162U          25292.75576149  .00005524  00000+0  82338-2 0  9994
2 82162 100.4774 214.1775 0065870 358.2179   1.8710 13.53018137497001
UNKNOWN                 
1 82180U          25291.43154418  .00031331  00000+0  41045-2 0  9994
2 82180  65.6530  84.4761 0333666 244.9742 111.6372 14.48251996593732
UNKNOWN                 
1 82189U          25290.88154956  .00000413  00000+0  15341-3 0  9996
2 82189  74.0335 150.7336 0016472 352.1876   7.9017 14.35150639624406
UNKNOWN                 
1 82199U          25293.24059413  .00000874  00000+0  74656-3 0  9997
2 82199  82.9634 274.1048 0036527 185.6125 189.7178 13.85692597602284
UNKNOWN                 
1 82205U          25289.02545199  .00003592  00000+0  10387-2 0  9997
2 82205  63.0110  49.1396 0494222 286.9352  67.8093 13.92674633599965
UNKNOWN                 
1 82223U          25291.13098604  .00003317  00000+0  18160-2 0  9998
2 82223  99.3202 174.9493 0068060 138.9390 221.6931 14.11454236440940
UNKNOWN                 
1 82250U          25287.68874543  .00004620  00000+0  24273-2 0  9997
2 82250  98.9039 193.3906 0074413 359.5815  31.2149 14.13182213608294
UNKNOWN                 
1 82272U          25292.71193326  .00000268  00000+0  97305-3 0  9995
2 82272  67.5239 298.5747 0753964 141.3657 224.3850 12.33490860265270
UNKNOWN                 
1 82295U          25287.32725221  .00001593  00000+0  58038-3 0  9998
2 82295  66.6195 304.4383 0131012 263.3779  95.2392 14.31090859571228
UNKNOWN                 
1 82303U          25291.07449368  .00053615  00000+0  47963-1 0  9995
2 82303  81.9164  51.1029 0088294 164.3039 319.5032 13.82231209506726
UNKNOWN                 
1 82311U          25293.13107940  .00000865  00000+0  12778-2 0  9996
2 82311  99.4391 349.3915 0110181  84.0113 277.3568 13.54446384543063
UNKNOWN                 
1 82363U          25286.09364679  .00001013  00000+0  16574-2 0  9998
2 82363  66.9395 323.8300 0461768 204.6365 153.1979 13.15562544282282
UNKNOWN                 
1 82369U          25288.78098295  .00000338  00000+0  25951-3 0  9999
2 82369  98.9046 305.5925 0084034 138.4096 222.3501 13.98123577549071
UNKNOWN                 
1 82381U          25291.35396631  .00031090  00000+0  43818-2 0  9995
2 82381  98.3986 153.6953 0010815 332.1117  27.9511 14.77138305502621
UNKNOWN                 
1 82402U          25292.10974071  .00011591  00000+0  86876-3 0  9999
2 82402  86.6705 179.1649 0009295  20.0424 340.1173 15.02549477446269
UNKNOWN                 
1 82432U          25291.85082860  .00004237  00000+0  90400-3 0  9996
2 82432  74.0054  85.2473 0057137 262.7215  96.7452 14.58190080474901
UNKNOWN                 
1 82448U          25293.56553873  .00012851  00000+0  95825-3 0  9997
2 82448  85.8745 227.7060 0012115  90.9469 269.3152 15.02716905429050
UNKNOWN                 
1 82453U          25293.17194536  .00000000  00000+0  34231-3 0  9994
2 82453 102.1661 249.5958 0094044 306.2372  53.0027 12.39697869539427
UNKNOWN                 
1 82458U          25276.53639629  .00006306  00000+0  28472-2 0  9991
2 82458  66.5153   6.2623 0044440  59.5453 301.0018 14.22180691600059
UNKNOWN                 
1 82484U          25293.31363417  .00000194  00000+0  33644-3 0  9991
2 82484  99.3630 317.6715 0043695 331.9613  27.9172 13.55762615583398
UNKNOWN                 
1 82494U          25292.82121905  .00030384  00000+0  37117-2 0  9993
2 82494  74.0064 128.9773 0006004 252.8395 107.2125 14.83140285 76963
UNKNOWN                 
1 82500U          25289.20492201  .00004229  00000+0  19502-2 0  9996
2 82500  70.9658 125.5502 0121236 203.7517 155.7984 14.17743097610797
UNKNOWN                 
1 82524U          25293.43556924  .00012941  00000+0  42275-2 0  9998
2 82524  73.2803 283.8153 0135158  52.0389  99.4948 14.33522683569398
UNKNOWN                 
1 82529U          25275.00106727  .00000454  00000+0  76072-3 0  9997
2 82529  99.7899   0.6542 0235750  56.1897 122.0239 13.41040128580123
UNKNOWN                 
1 82545U          25266.33739637 -.00000021  00000+0  59793-3 0  9995
2 82545  64.8837 298.7696 0184081 305.7280  52.6643 11.30807977429820
UNKNOWN                 
1 82560U          25293.62713294  .00002139  00000+0  17617-2 0  9994
2 82560  99.9812 232.2784 0011582  75.8145 102.8982 13.90415238604484
UNKNOWN                 
1 82597U          25289.30337607  .00002355  00000+0  80851-3 0  9995
2 82597  66.7698 299.1834 0093977 347.5264  12.3510 14.35366856620734
UNKNOWN                 
1 82617U          25290.89098113  .00000928  00000+0  24820-3 0  9998
2 82617  74.0291 348.4613 0039838 305.0158  54.7265 14.49275914628732
UNKNOWN                 
1 82627U          25293.42323354  .00000838  00000+0  21730-2 0  9995
2 82627  82.4720 286.6603 0008625 234.3151 279.2631 13.16193640571817
UNKNOWN                 
1 82642U          25292.03290015  .00004776  00000+0  26515-2 0  9996
2 82642  98.9705 202.9684 0138672  29.9920 330.9102 14.06848298608441
UNKNOWN                 
1 82683U          25292.15296947  .00003147  00000+0  12006-2 0  9995
2 82683  98.1794   5.1905 0211393 195.3979 164.0702 14.19891800454520
UNKNOWN                 
1 82693U          25291.61445100  .00003477  00000+0  40567-2 0  9992
2 82693 100.5298 250.0806 0037363 159.3291 200.9372 13.69081078546212
UNKNOWN                 
1 82698U          25285.79881404  .00002327  00000+0  14065-2 0  9997
2 82698  61.6145 313.6146 0685895 266.8111  85.4260 13.29151267530277
UNKNOWN                 
1 82708U          25290.82341279  .00001105  00000+0  43631-2 0  9994
2 82708 102.1699 128.5803 0061517  37.6584 322.8791 12.90427698516300
UNKNOWN                 
1 82729U          25289.16593294  .00001646  00000+0  57083-2 0  9994
2 82729  67.9655 245.4052 0825358  50.3371 316.7526 12.17635810528199
UNKNOWN                 
1 82739U          25291.69165597  .00002261  00000+0  18926-2 0  9994
2 82739  99.0852  89.9415 0174575  80.7728 300.1920 13.82430444598506
UNKNOWN                 
1 82741U          25293.01370794  .00004364  00000+0  47285-2 0  9998
2 82741 102.8507 311.1892 0199113  26.8797 334.2486 13.65660396589743
UNKNOWN                 
1 82783U          25293.28058172  .00001744  00000+0  50729-2 0  9992
2 82783  90.3406  36.4692 0023712 248.2538 111.6065 13.08913099497361
UNKNOWN                 
1 82798U          25282.15605166  .00003413  00000+0  15160-2 0  9998
2 82798  82.9492 243.5218 0031946  10.4595   6.5463 14.22473404303193
UNKNOWN                 
1 82820U          25290.88421950  .00007620  00000+0  26908-2 0  9996
2 82820  99.7863  84.2618 0050693 174.7192 185.4534 14.34289077617624
UNKNOWN                 
1 82829U          25291.57363609 -.00000026  00000+0  44660-3 0  9998
2 82829  65.0953 147.0180 0169080 347.4259  40.7698 11.29110559479859
UNKNOWN                 
1 82854U          25289.21313183  .00001777  00000+0  13990-2 0  9990
2 82854  82.6879 109.7095 0127780  84.3152 277.2564 13.87509223599824
UNKNOWN                 
1 82873U          25293.14533925  .00006089  00000+0  26600-2 0  9999
2 82873  99.9951 180.0203 0040510  70.2575 290.2962 14.23824640613602
UNKNOWN                 
1 82875U          25293.23304665  .00001687  00000+0  44479-3 0  9992
2 82875  98.6711 277.9210 0380019  76.5942 287.7290 14.14952490536903
